{"spkid": "20267131", "covariance": {"epoch": "2459778.5", "labels": ["e", "q", "tp", "node", "peri", "i"], "elements": [{"units": null, "title": "eccentricity", "value": ".6569736201784586", "name": "e", "sigma": 3.62499134719398e-08, "label": "e"}, {"label": "q", "name": "q", "sigma": 8.84088120408212e-08, "units": "au", "title": "perihelion distance", "value": ".8266915687599797"}, {"label": "tp", "sigma": 1.70805028198438e-05, "name": "tp", "units": "TDB", "title": "time of perihelion passage", "value": "2459686.485422935448"}, {"label": "node", "name": "om", "sigma": 1.92698709529551e-05, "value": "126.446249841621", "title": "longitude of the ascending node", "units": "deg"}, {"name": "w", "sigma": 1.99589171253482e-05, "units": "deg", "value": "305.4757174338703", "title": "argument of perihelion", "label": "peri"}, {"name": "i", "sigma": 1.00363119010146e-05, "units": "deg", "title": "inclination", "value": "15.64014406884085", "label": "i"}], "data": [["1.314056226723122E-15", "-3.20328285503465E-15", "3.097871959005401E-13", "4.043647416021863E-14", "1.066981087716348E-13", "-4.847399801453496E-14"], ["-3.20328285503465E-15", "7.81611804646925E-15", "-7.669491541176148E-13", "-9.966979449700551E-14", "-2.609631844281297E-13", "1.217922475512187E-13"], ["3.097871959005401E-13", "-7.669491541176148E-13", "2.917435765786903E-10", "-1.730042202680258E-12", "1.098393211390937E-10", "-3.096461392066043E-11"], ["4.043647416021863E-14", "-9.966979449700551E-14", "-1.730042202680258E-12", "3.713279265435429E-10", "-3.533733063585364E-10", "7.937934849625252E-11"], ["1.066981087716348E-13", "-2.609631844281297E-13", "1.098393211390937E-10", "-3.533733063585364E-10", "3.983583728165171E-10", "-8.868007137946551E-11"], ["-4.847399801453496E-14", "1.217922475512187E-13", "-3.096461392066043E-11", "7.937934849625252E-11", "-8.868007137946551E-11", "1.007275565744468E-10"]]}, "elements": [{"label": "e", "units": null, "title": "eccentricity", "value": ".6573556153268127", "sigma": "3.6282E-8", "name": "e"}, {"label": "a", "value": "2.409319062636239", "title": "semi-major axis", "units": "au", "sigma": "8.4628E-9", "name": "a"}, {"value": ".8255396476983745", "title": "perihelion distance", "units": "au", "name": "q", "sigma": "8.8486E-8", "label": "q"}, {"sigma": "1.0041E-5", "name": "i", "units": "deg", "value": "15.64982574097235", "title": "inclination; angle with respect to x-y ecliptic plane", "label": "i"}, {"title": "longitude of the ascending node", "value": "126.3870812844386", "units": "deg", "sigma": "1.9256E-5", "name": "om", "label": "node"}, {"label": "peri", "sigma": "1.9947E-5", "name": "w", "units": "deg", "title": "argument of perihelion", "value": "305.5637032827593"}, {"label": "M", "sigma": "4.0855E-6", "name": "ma", "units": "deg", "title": "mean anomaly", "value": "38.76844719732895"}, {"label": "tp", "value": "2461053.398938133736", "title": "time of perihelion passage", "units": "TDB", "sigma": "1.5491E-5", "name": "tp"}, {"name": "per", "sigma": "7.197E-6", "value": "1365.96603940081", "title": "sidereal orbital period", "units": "d", "label": "period"}, {"label": "n", "title": "mean motion", "value": ".2635497440023592", "units": "deg/d", "sigma": "1.3886E-9", "name": "n"}, {"sigma": "1.4026E-8", "name": "ad", "title": "aphelion distance", "value": "3.993098477574104", "units": "au", "label": "Q"}], "epoch": "2461200.5"}